{"type": "FeatureCollection", "features": [{"type": "Feature", "properties": {"kind": "course_boundary", "osm_id": 174533646, "osm_type": "way", "name": "Roosevelt Municipal Golf Course", "course_name": "Roosevelt Municipal Golf Course"}, "geometry": {"type": "Polygon", "coordinates": [[[-118.2934552, 34.1205537], [-118.2935688, 34.1205631], [-118.2936739, 34.1205527], [-118.2937708, 34.1205177], [-118.2938516, 34.1204611], [-118.2939093, 34.1203877], [-118.2939391, 34.1203037], [-118.2939648, 34.1201729], [-118.2939876, 34.1200234], [-118.2933814, 34.1189087], [-118.2938618, 34.1184466], [-118.2935372, 34.1183334], [-118.2933431, 34.1181244], [-118.2919254, 34.1180815], [-118.2917248, 34.1184352], [-118.2916913, 34.1185236], [-118.2909923, 34.118468], [-118.2905003, 34.1183809], [-118.2894881, 34.1186932], [-118.2887955, 34.1187514], [-118.2880015, 34.1185403], [-118.2875754, 34.1185371], [-118.2868181, 34.1187836], [-118.2864944, 34.1189443], [-118.2880286, 34.1211844], [-118.2884558, 34.1213666], [-118.2886629, 34.121806], [-118.2887423, 34.1219694], [-118.2888864, 34.1221319], [-118.2890239, 34.1222248], [-118.2891743, 34.1222638], [-118.2893029, 34.1222314], [-118.2893879, 34.1221704], [-118.289445, 34.122076], [-118.289496, 34.1218984], [-118.2895803, 34.1217578], [-118.2901194, 34.1214094], [-118.2906308, 34.1209915], [-118.2913105, 34.1207503], [-118.2922879, 34.1205306], [-118.2932044, 34.1205299], [-118.2934552, 34.1205537]]]}}, {"type": "Feature", "properties": {"kind": "green", "osm_id": 893595847, "osm_type": "way", "name": null}, "geometry": {"type": "Polygon", "coordinates": [[[-118.2897976, 34.1211115], [-118.2897687, 34.1211294], [-118.2897316, 34.1211408], [-118.2896958, 34.1211428], [-118.2896651, 34.121137], [-118.2896404, 34.1211307], [-118.2896164, 34.1211156], [-118.2895993, 34.1210974], [-118.2895878, 34.1210714], [-118.2895816, 34.1210476], [-118.2895774, 34.1210151], [-118.2895769, 34.1209887], [-118.2895804, 34.120961], [-118.2895903, 34.1209369], [-118.2896095, 34.1209163], [-118.2896377, 34.1209009], [-118.2896713, 34.1208931], [-118.2897021, 34.1208918], [-118.2897276, 34.120896], [-118.289747, 34.1209067], [-118.2897617, 34.1209216], [-118.2897665, 34.1209378], [-118.2897736, 34.1209553], [-118.2897845, 34.120972], [-118.2897935, 34.1209849], [-118.2898058, 34.1209997], [-118.2898208, 34.1210117], [-118.2898315, 34.1210265], [-118.2898329, 34.1210482], [-118.2898292, 34.1210637], [-118.2898165, 34.1210903], [-118.2897976, 34.1211115]]]}}, {"type": "Feature", "properties": {"kind": "green", "osm_id": 893595848, "osm_type": "way", "name": null}, "geometry": {"type": "Polygon", "coordinates": [[[-118.2891489, 34.1219968], [-118.2891335, 34.1220202], [-118.289115, 34.12204], [-118.2890871, 34.1220576], [-118.2890606, 34.1220625], [-118.2890304, 34.1220602], [-118.2890045, 34.1220511], [-118.2889811, 34.1220345], [-118.2889572, 34.1220072], [-118.2889334, 34.1219778], [-118.2889225, 34.121959], [-118.288915, 34.1219384], [-118.2889108, 34.1219142], [-118.2889132, 34.1218924], [-118.2889219, 34.1218732], [-118.2889346, 34.1218601], [-118.2889546, 34.12185], [-118.2889844, 34.1218425], [-118.2890149, 34.12184], [-118.2890445, 34.1218415], [-118.2890683, 34.1218458], [-118.2890964, 34.1218579], [-118.2891167, 34.1218728], [-118.2891341, 34.1218906], [-118.2891473, 34.121909], [-118.2891556, 34.1219339], [-118.2891594, 34.1219556], [-118.2891577, 34.1219754], [-118.2891489, 34.1219968]]]}}, {"type": "Feature", "properties": {"kind": "green", "osm_id": 893595849, "osm_type": "way", "name": null}, "geometry": {"type": "Polygon", "coordinates": [[[-118.2885372, 34.121097], [-118.2884711, 34.1210878], [-118.2884264, 34.1210508], [-118.2883604, 34.1209153], [-118.2883644, 34.12088], [-118.2883939, 34.1208463], [-118.2884579, 34.1208404], [-118.288523, 34.1208808], [-118.2885697, 34.1209952], [-118.2885768, 34.1210482], [-118.2885372, 34.121097]]]}}, {"type": "Feature", "properties": {"kind": "green", "osm_id": 893595850, "osm_type": "way", "name": null}, "geometry": {"type": "Polygon", "coordinates": [[[-118.2910647, 34.1197939], [-118.2909921, 34.1197953], [-118.2909408, 34.1197455], [-118.2909107, 34.1196929], [-118.2908977, 34.1196517], [-118.2909025, 34.1196156], [-118.2909099, 34.1195935], [-118.2909171, 34.1195696], [-118.2909236, 34.1195516], [-118.2909678, 34.1195296], [-118.2910069, 34.1195191], [-118.2910551, 34.1195275], [-118.2911016, 34.1195411], [-118.2911125, 34.1195829], [-118.2911231, 34.1196943], [-118.2911072, 34.1197675], [-118.2910647, 34.1197939]]]}}, {"type": "Feature", "properties": {"kind": "green", "osm_id": 893595851, "osm_type": "way", "name": null}, "geometry": {"type": "Polygon", "coordinates": [[[-118.291807, 34.1196104], [-118.291777, 34.1196148], [-118.2917497, 34.1196075], [-118.2917275, 34.1195896], [-118.2917104, 34.1195664], [-118.2916911, 34.119534], [-118.2916638, 34.1194911], [-118.2916404, 34.1194475], [-118.2916327, 34.1194182], [-118.2916306, 34.1193883], [-118.2916364, 34.1193747], [-118.2916577, 34.1193658], [-118.2916848, 34.1193641], [-118.2917158, 34.1193647], [-118.2917453, 34.1193758], [-118.2917706, 34.1194061], [-118.2917979, 34.1194435], [-118.2918163, 34.1194738], [-118.291841, 34.1195128], [-118.2918521, 34.1195382], [-118.2918518, 34.1195665], [-118.2918373, 34.1195904], [-118.291807, 34.1196104]]]}}, {"type": "Feature", "properties": {"kind": "green", "osm_id": 893595852, "osm_type": "way", "name": null}, "geometry": {"type": "Polygon", "coordinates": [[[-118.2922192, 34.1183377], [-118.2921983, 34.1183545], [-118.2921753, 34.1183665], [-118.2921483, 34.1183737], [-118.2921116, 34.1183767], [-118.2920864, 34.1183679], [-118.2920689, 34.1183524], [-118.292054, 34.1183363], [-118.2920413, 34.118316], [-118.2920294, 34.1182952], [-118.2920146, 34.1182728], [-118.2920078, 34.1182521], [-118.2920112, 34.1182325], [-118.2920203, 34.1182119], [-118.2920372, 34.118195], [-118.2920597, 34.1181861], [-118.2920847, 34.1181783], [-118.292109, 34.1181744], [-118.292139, 34.1181745], [-118.2921626, 34.1181783], [-118.292185, 34.1181851], [-118.2922008, 34.118198], [-118.2922166, 34.1182137], [-118.2922265, 34.1182307], [-118.2922363, 34.118258], [-118.292241, 34.1182903], [-118.2922358, 34.1183131], [-118.2922192, 34.1183377]]]}}, {"type": "Feature", "properties": {"kind": "green", "osm_id": 893595853, "osm_type": "way", "name": null}, "geometry": {"type": "Polygon", "coordinates": [[[-118.2937666, 34.1204171], [-118.2937338, 34.1204383], [-118.293713, 34.1204482], [-118.2936933, 34.1204513], [-118.2936737, 34.1204473], [-118.2936603, 34.1204424], [-118.2936468, 34.1204292], [-118.2936324, 34.1204111], [-118.2936237, 34.1203917], [-118.2936144, 34.1203726], [-118.2936017, 34.1203496], [-118.2935862, 34.12033], [-118.2935695, 34.1203112], [-118.2935535, 34.1202848], [-118.2935513, 34.1202682], [-118.2935588, 34.1202519], [-118.2935799, 34.1202325], [-118.2936127, 34.1202157], [-118.2936462, 34.1202066], [-118.2936875, 34.1202059], [-118.2937188, 34.1202133], [-118.293753, 34.1202346], [-118.2937838, 34.1202571], [-118.293806, 34.12028], [-118.2938171, 34.1202946], [-118.2938282, 34.1203163], [-118.2938324, 34.1203323], [-118.2938292, 34.1203544], [-118.2938199, 34.1203712], [-118.2938011, 34.1203898], [-118.2937666, 34.1204171]]]}}, {"type": "Feature", "properties": {"kind": "bunker", "osm_id": 893595854, "osm_type": "way", "name": null, "surface": null}, "geometry": {"type": "Polygon", "coordinates": [[[-118.2937501, 34.1201971], [-118.2937318, 34.1201911], [-118.2937159, 34.1201845], [-118.2936956, 34.120185], [-118.2936754, 34.1201824], [-118.2936624, 34.1201729], [-118.2936587, 34.1201513], [-118.2936601, 34.1201363], [-118.293678, 34.1201271], [-118.2937032, 34.1201283], [-118.2937278, 34.1201354], [-118.2937503, 34.1201395], [-118.2937665, 34.120144], [-118.2937734, 34.1201576], [-118.2937761, 34.1201803], [-118.2937677, 34.120195], [-118.2937501, 34.1201971]]]}}, {"type": "Feature", "properties": {"kind": "bunker", "osm_id": 893595855, "osm_type": "way", "name": null, "surface": null}, "geometry": {"type": "Polygon", "coordinates": [[[-118.2917054, 34.1193471], [-118.2916829, 34.119346], [-118.2916659, 34.1193485], [-118.2916451, 34.1193472], [-118.2916296, 34.1193391], [-118.291622, 34.119326], [-118.2916233, 34.1193089], [-118.2916184, 34.1192955], [-118.2916204, 34.1192689], [-118.2916245, 34.119259], [-118.2916344, 34.1192522], [-118.2916515, 34.1192484], [-118.2916654, 34.1192508], [-118.2916725, 34.1192593], [-118.2916768, 34.1192722], [-118.2916803, 34.1192854], [-118.2916882, 34.1192922], [-118.2917048, 34.119299], [-118.29172, 34.1193144], [-118.2917228, 34.1193263], [-118.2917174, 34.1193373], [-118.2917054, 34.1193471]]]}}, {"type": "Feature", "properties": {"kind": "bunker", "osm_id": 893595856, "osm_type": "way", "name": null, "surface": null}, "geometry": {"type": "Polygon", "coordinates": [[[-118.2903249, 34.1201503], [-118.2903102, 34.1201269], [-118.2902954, 34.1201025], [-118.2902599, 34.1200925], [-118.2902297, 34.1200759], [-118.2902243, 34.1200459], [-118.2902418, 34.1200215], [-118.2902894, 34.1200204], [-118.290335, 34.1200431], [-118.2903765, 34.1200931], [-118.2903933, 34.1201258], [-118.2903678, 34.1201541], [-118.2903249, 34.1201503]]]}}, {"type": "Feature", "properties": {"kind": "bunker", "osm_id": 893595857, "osm_type": "way", "name": null, "surface": null}, "geometry": {"type": "Polygon", "coordinates": [[[-118.2892363, 34.1219705], [-118.2892175, 34.121969], [-118.2892, 34.1219622], [-118.2891945, 34.121949], [-118.2891953, 34.1219295], [-118.2891807, 34.1219146], [-118.2891721, 34.1218961], [-118.2891763, 34.1218793], [-118.2891933, 34.1218654], [-118.2892222, 34.121865], [-118.2892536, 34.1218656], [-118.2892703, 34.1218812], [-118.28927, 34.1218954], [-118.2892617, 34.1219071], [-118.2892533, 34.1219172], [-118.2892559, 34.1219283], [-118.2892623, 34.1219442], [-118.2892533, 34.1219603], [-118.2892363, 34.1219705]]]}}, {"type": "Feature", "properties": {"kind": "bunker", "osm_id": 893595858, "osm_type": "way", "name": null, "surface": null}, "geometry": {"type": "Polygon", "coordinates": [[[-118.2886851, 34.1202155], [-118.2886617, 34.1201981], [-118.2886664, 34.1201653], [-118.2886921, 34.1201518], [-118.2887259, 34.1201643], [-118.2887388, 34.1201962], [-118.2887213, 34.1202242], [-118.2886851, 34.1202155]]]}}, {"type": "Feature", "properties": {"kind": "green", "osm_id": 893595865, "osm_type": "way", "name": null}, "geometry": {"type": "Polygon", "coordinates": [[[-118.2867882, 34.1191003], [-118.286723, 34.1190921], [-118.2866735, 34.1190569], [-118.2866567, 34.1190021], [-118.2866894, 34.1189375], [-118.2867239, 34.1188909], [-118.2867776, 34.1189019], [-118.2868139, 34.1189252], [-118.2868415, 34.1190013], [-118.2868524, 34.1190684], [-118.2868218, 34.1190995], [-118.2867882, 34.1191003]]]}}, {"type": "Feature", "properties": {"kind": "green", "osm_id": 893595867, "osm_type": "way", "name": null}, "geometry": {"type": "Polygon", "coordinates": [[[-118.2887866, 34.1191933], [-118.2886791, 34.1191691], [-118.2886223, 34.11912], [-118.2886395, 34.1190694], [-118.2887238, 34.1190402], [-118.2888314, 34.1190587], [-118.2888916, 34.1191043], [-118.288895, 34.1191606], [-118.2887866, 34.1191933]]]}}, {"type": "Feature", "properties": {"kind": "tee_box", "osm_id": 893595870, "osm_type": "way", "name": null}, "geometry": {"type": "Polygon", "coordinates": [[[-118.2927304, 34.1183567], [-118.2926679, 34.1182049], [-118.2925452, 34.1182358], [-118.2926054, 34.1183887], [-118.2927304, 34.1183567]]]}}, {"type": "Feature", "properties": {"kind": "tee_box", "osm_id": 893595872, "osm_type": "way", "name": null}, "geometry": {"type": "Polygon", "coordinates": [[[-118.290253, 34.1212141], [-118.2901853, 34.121064], [-118.2897524, 34.1213869], [-118.2898124, 34.1214821], [-118.290253, 34.1212141]]]}}, {"type": "Feature", "properties": {"kind": "tee_box", "osm_id": 893595873, "osm_type": "way", "name": null}, "geometry": {"type": "Polygon", "coordinates": [[[-118.2886359, 34.1215285], [-118.2885185, 34.1214659], [-118.2886124, 34.1213591], [-118.2887272, 34.1214325], [-118.2886359, 34.1215285]]]}}, {"type": "Feature", "properties": {"kind": "tee_box", "osm_id": 893595874, "osm_type": "way", "name": null}, "geometry": {"type": "Polygon", "coordinates": [[[-118.2922481, 34.1196819], [-118.2922221, 34.1192745], [-118.2920711, 34.1192765], [-118.2920865, 34.1196875], [-118.2922481, 34.1196819]]]}}, {"type": "Feature", "properties": {"kind": "tee_box", "osm_id": 893595875, "osm_type": "way", "name": null}, "geometry": {"type": "Polygon", "coordinates": [[[-118.2898701, 34.1194327], [-118.2898102, 34.1193322], [-118.2896544, 34.1193979], [-118.2897188, 34.1194996], [-118.2898701, 34.1194327]]]}}, {"type": "Feature", "properties": {"kind": "tee_box", "osm_id": 893595877, "osm_type": "way", "name": null}, "geometry": {"type": "Polygon", "coordinates": [[[-118.2871217, 34.1190592], [-118.2871348, 34.1189566], [-118.286977, 34.1189329], [-118.2869796, 34.1190613], [-118.2871217, 34.1190592]]]}}, {"type": "Feature", "properties": {"kind": "tee_box", "osm_id": 893595878, "osm_type": "way", "name": null}, "geometry": {"type": "Polygon", "coordinates": [[[-118.2881298, 34.1210206], [-118.2880528, 34.1208979], [-118.2879282, 34.1209486], [-118.2879994, 34.1210714], [-118.2881298, 34.1210206]]]}}, {"type": "Feature", "properties": {"kind": "tee_box", "osm_id": 893595879, "osm_type": "way", "name": null}, "geometry": {"type": "Polygon", "coordinates": [[[-118.2878946, 34.1206165], [-118.2878274, 34.1205167], [-118.2877029, 34.1205789], [-118.2877662, 34.1206639], [-118.2878946, 34.1206165]]]}}, {"type": "Feature", "properties": {"kind": "tee_box", "osm_id": 1151691383, "osm_type": "way", "name": null}, "geometry": {"type": "Polygon", "coordinates": [[[-118.2934002, 34.1204815], [-118.2930768, 34.1204506], [-118.293099, 34.1203182], [-118.2934165, 34.120353], [-118.2934002, 34.1204815]]]}}, {"type": "Feature", "properties": {"kind": "tee_box", "osm_id": 1151695800, "osm_type": "way", "name": null}, "geometry": {"type": "Polygon", "coordinates": [[[-118.2893406, 34.1189255], [-118.2893312, 34.1188245], [-118.2888014, 34.1188523], [-118.2888055, 34.1189444], [-118.2893406, 34.1189255]]]}}, {"type": "Feature", "properties": {"kind": "fairway", "osm_id": 1151695801, "osm_type": "way", "name": null}, "geometry": {"type": "Polygon", "coordinates": [[[-118.2916945, 34.1193286], [-118.2917685, 34.1193705], [-118.2918242, 34.1194468], [-118.2918724, 34.1195277], [-118.2918812, 34.1195618], [-118.2918695, 34.1195943], [-118.2918217, 34.1196313], [-118.2917671, 34.1196376], [-118.2917292, 34.1196252], [-118.2917001, 34.1195943], [-118.2916243, 34.1194556], [-118.291618, 34.1194138], [-118.2916084, 34.1193899], [-118.2915877, 34.1193629], [-118.2915575, 34.1193321], [-118.2915091, 34.1192792], [-118.2914725, 34.1192223], [-118.2913965, 34.1190924], [-118.2912875, 34.1189781], [-118.2911942, 34.118912], [-118.2910917, 34.118853], [-118.2909439, 34.1187954], [-118.2908184, 34.1187591], [-118.2906873, 34.1187365], [-118.2905408, 34.1187246], [-118.2903927, 34.1187445], [-118.2902608, 34.1187584], [-118.2899624, 34.1187928], [-118.2897998, 34.1188398], [-118.2897338, 34.1188612], [-118.2897076, 34.1188618], [-118.2896925, 34.1188439], [-118.2897035, 34.1188202], [-118.2898333, 34.1187457], [-118.2899942, 34.1186895], [-118.2901639, 34.1186361], [-118.2903711, 34.1185828], [-118.2905473, 34.1185783], [-118.2907345, 34.118582], [-118.2909098, 34.1186209], [-118.2911301, 34.1186765], [-118.2912116, 34.1187097], [-118.2912887, 34.1187503], [-118.2913759, 34.1188288], [-118.2914388, 34.1188972], [-118.2914949, 34.1189655], [-118.2915275, 34.1190455], [-118.2915461, 34.1191206], [-118.2915579, 34.1191837], [-118.2915795, 34.11924], [-118.2916019, 34.1192854], [-118.291658, 34.1193198], [-118.2916945, 34.1193286]]]}}, {"type": "Feature", "properties": {"kind": "tee_box", "osm_id": 1211066549, "osm_type": "way", "name": null}, "geometry": {"type": "Polygon", "coordinates": [[[-118.2903209, 34.1192854], [-118.2901356, 34.119361], [-118.2900827, 34.119264], [-118.2902728, 34.1191902], [-118.2903209, 34.1192854]]]}}, {"type": "Feature", "properties": {"kind": "fairway", "osm_id": 1211066550, "osm_type": "way", "name": null}, "geometry": {"type": "Polygon", "coordinates": [[[-118.2874013, 34.1200786], [-118.2874879, 34.1202327], [-118.2875704, 34.1203663], [-118.2876161, 34.1204358], [-118.2876594, 34.1204588], [-118.2877248, 34.1204468], [-118.2877344, 34.1203796], [-118.2875694, 34.1199668], [-118.2874079, 34.1197234], [-118.2872943, 34.1195796], [-118.2870969, 34.1193131], [-118.2869927, 34.1191565], [-118.2869774, 34.1191218], [-118.286955, 34.1191147], [-118.2869089, 34.1191195], [-118.2868912, 34.1191306], [-118.2868639, 34.1191637], [-118.286889, 34.1192648], [-118.2869737, 34.1194141], [-118.2871059, 34.119654], [-118.2872352, 34.1198358], [-118.2873458, 34.1199889], [-118.2874013, 34.1200786]]]}}, {"type": "Feature", "properties": {"kind": "bunker", "osm_id": 1211066551, "osm_type": "way", "name": null, "surface": null}, "geometry": {"type": "Polygon", "coordinates": [[[-118.2883066, 34.1192214], [-118.2882579, 34.1192142], [-118.288212, 34.1191984], [-118.2881952, 34.1191746], [-118.28819, 34.1191455], [-118.2882046, 34.1191277], [-118.2882556, 34.1191275], [-118.2883159, 34.1191471], [-118.2883612, 34.1191695], [-118.2883775, 34.1192002], [-118.2883625, 34.1192267], [-118.2883331, 34.1192329], [-118.2883066, 34.1192214]]]}}, {"type": "Feature", "properties": {"kind": "bunker", "osm_id": 1211066552, "osm_type": "way", "name": null, "surface": null}, "geometry": {"type": "Polygon", "coordinates": [[[-118.2885804, 34.1190462], [-118.2885641, 34.1190824], [-118.2885128, 34.119111], [-118.2884874, 34.1191051], [-118.2884592, 34.1190802], [-118.2884453, 34.1190555], [-118.2884452, 34.1190309], [-118.2884613, 34.1190102], [-118.2884854, 34.1190009], [-118.2885257, 34.1189983], [-118.2885542, 34.1190039], [-118.2885789, 34.1190237], [-118.2885804, 34.1190462]]]}}, {"type": "Feature", "properties": {"kind": "fairway", "osm_id": 1211066553, "osm_type": "way", "name": null}, "geometry": {"type": "Polygon", "coordinates": [[[-118.2878288, 34.1189986], [-118.2876807, 34.1189931], [-118.2875395, 34.1189899], [-118.2874265, 34.118979], [-118.2873873, 34.1189404], [-118.2873897, 34.1188947], [-118.2873994, 34.118843], [-118.2874557, 34.1188234], [-118.2875986, 34.1188285], [-118.2879469, 34.1188845], [-118.2882088, 34.1189451], [-118.288314, 34.1189733], [-118.2884024, 34.1190429], [-118.2884324, 34.1190722], [-118.2884704, 34.1191067], [-118.2884998, 34.1191213], [-118.2885423, 34.1191145], [-118.288561, 34.1191491], [-118.2885536, 34.1191656], [-118.2885062, 34.119165], [-118.2884336, 34.1191523], [-118.2882195, 34.1191009], [-118.2879799, 34.1190398], [-118.2879029, 34.1190136], [-118.2878288, 34.1189986]]]}}, {"type": "Feature", "properties": {"kind": "bunker", "osm_id": 1211066554, "osm_type": "way", "name": null, "surface": null}, "geometry": {"type": "Polygon", "coordinates": [[[-118.2914859, 34.1187181], [-118.2914895, 34.1187567], [-118.2914614, 34.118797], [-118.291416, 34.1188102], [-118.2913909, 34.1188006], [-118.2913821, 34.1187749], [-118.2913798, 34.1187307], [-118.2913851, 34.1187046], [-118.2914082, 34.1186915], [-118.2914285, 34.1186844], [-118.2914613, 34.1186975], [-118.2914859, 34.1187181]]]}}, {"type": "Feature", "properties": {"kind": "bunker", "osm_id": 1211066555, "osm_type": "way", "name": null, "surface": null}, "geometry": {"type": "Polygon", "coordinates": [[[-118.291515, 34.1194825], [-118.2914985, 34.1194376], [-118.2914897, 34.1193987], [-118.2914986, 34.1193672], [-118.2915317, 34.1193636], [-118.2915606, 34.119376], [-118.2915793, 34.1194048], [-118.2915888, 34.1194492], [-118.2915819, 34.1194746], [-118.2915589, 34.1194954], [-118.291515, 34.1194825]]]}}, {"type": "Feature", "properties": {"kind": "bunker", "osm_id": 1211066556, "osm_type": "way", "name": null, "surface": null}, "geometry": {"type": "Polygon", "coordinates": [[[-118.2886649, 34.1199774], [-118.2886691, 34.1200257], [-118.2886569, 34.1200633], [-118.2886221, 34.1200709], [-118.2885925, 34.1200679], [-118.2885727, 34.1200424], [-118.2885659, 34.1200079], [-118.2885644, 34.1199675], [-118.2885812, 34.1199451], [-118.2886113, 34.1199301], [-118.2886316, 34.1199295], [-118.2886458, 34.1199433], [-118.2886638, 34.1199744], [-118.2886649, 34.1199774]]]}}, {"type": "Feature", "properties": {"kind": "fairway", "osm_id": 16472288, "osm_type": "relation", "name": null}, "geometry": {"type": "Polygon", "coordinates": [[[-118.2936816, 34.1199974], [-118.2937178, 34.1200489], [-118.2937692, 34.1201106], [-118.2937778, 34.1201349], [-118.2937814, 34.1202129], [-118.2937961, 34.1202493], [-118.293834, 34.1202949], [-118.2938462, 34.1203353], [-118.2938401, 34.1203738], [-118.2937888, 34.1204194], [-118.2937337, 34.1204558], [-118.2936922, 34.1204659], [-118.2936555, 34.1204588], [-118.2936274, 34.1204345], [-118.2936066, 34.1203951], [-118.2935907, 34.1203617], [-118.2935577, 34.1203222], [-118.2935271, 34.1202868], [-118.2934709, 34.1202139], [-118.293406, 34.1201127], [-118.2933449, 34.1200185], [-118.2932948, 34.1199072], [-118.2931909, 34.1196399], [-118.2930576, 34.1192988], [-118.2929292, 34.1189931], [-118.2928289, 34.1187755], [-118.292802, 34.1186783], [-118.292824, 34.1186368], [-118.2928742, 34.1186145], [-118.2929414, 34.1186135], [-118.2930038, 34.118651], [-118.2930478, 34.1186935], [-118.2930784, 34.1187552], [-118.2930979, 34.1188453], [-118.2931309, 34.1189121], [-118.2931688, 34.1189648], [-118.2932336, 34.1190184], [-118.2932915, 34.1190619], [-118.2933286, 34.1191149], [-118.2933657, 34.1191855], [-118.293447, 34.1193751], [-118.2935532, 34.1196754], [-118.293595, 34.1197861], [-118.2936327, 34.1198886], [-118.2936572, 34.1199516], [-118.2936816, 34.1199974]]]}}, {"type": "Feature", "properties": {"kind": "fairway", "osm_id": 16472289, "osm_type": "relation", "name": null}, "geometry": {"type": "Polygon", "coordinates": [[[-118.288883, 34.1208717], [-118.2889568, 34.1206881], [-118.2890312, 34.120478], [-118.2890815, 34.1203633], [-118.2892712, 34.1202569], [-118.2895593, 34.1201262], [-118.2899733, 34.1199755], [-118.2904135, 34.1198345], [-118.2907228, 34.1196833], [-118.290801, 34.1196428], [-118.2908242, 34.1196507], [-118.2908615, 34.1196844], [-118.29089, 34.1197339], [-118.2908973, 34.119804], [-118.290878, 34.1198615], [-118.2905705, 34.1199809], [-118.2904276, 34.1200555], [-118.2903965, 34.1200859], [-118.2904039, 34.1201153], [-118.2903907, 34.1201505], [-118.2903608, 34.1201723], [-118.2903272, 34.1201766], [-118.2902611, 34.1201717], [-118.2902095, 34.1201899], [-118.2899394, 34.120265], [-118.2895654, 34.120424], [-118.2894086, 34.1205208], [-118.2892243, 34.1207039], [-118.2890698, 34.1209514], [-118.2890196, 34.1210344], [-118.2889776, 34.1210683], [-118.2889251, 34.1210793], [-118.2888939, 34.121079], [-118.2888643, 34.1210669], [-118.2888302, 34.1210422], [-118.2888139, 34.1210116], [-118.2888412, 34.1209516], [-118.288883, 34.1208717]]]}}, {"type": "Feature", "properties": {"kind": "fairway", "osm_id": 16472290, "osm_type": "relation", "name": null}, "geometry": {"type": "Polygon", "coordinates": [[[-118.2922059, 34.1190553], [-118.2922099, 34.1191091], [-118.2922076, 34.1191343], [-118.2921964, 34.1191539], [-118.2921763, 34.1191651], [-118.2921493, 34.1191756], [-118.2921269, 34.1191796], [-118.2921032, 34.1191741], [-118.2920772, 34.1191604], [-118.2920614, 34.1191439], [-118.2920508, 34.1191226], [-118.2920453, 34.1190944], [-118.2920479, 34.1190056], [-118.2920555, 34.1187384], [-118.2920597, 34.1186188], [-118.292058, 34.1185139], [-118.2920513, 34.1184146], [-118.2920403, 34.1183649], [-118.2920192, 34.1183118], [-118.2920044, 34.1182841], [-118.291993, 34.1182607], [-118.2919947, 34.1182338], [-118.292004, 34.1182124], [-118.2920225, 34.1181887], [-118.2920517, 34.1181722], [-118.2920876, 34.1181628], [-118.2921412, 34.1181582], [-118.2921864, 34.1181677], [-118.2922223, 34.1181841], [-118.2922506, 34.1182145], [-118.292265, 34.1182593], [-118.292265, 34.1183051], [-118.2922616, 34.1183586], [-118.292249, 34.1184328], [-118.2922295, 34.1185181], [-118.2922185, 34.1186447], [-118.2922101, 34.1189154], [-118.2922059, 34.1190553]]]}}, {"type": "Feature", "properties": {"kind": "fairway", "osm_id": 16472291, "osm_type": "relation", "name": null}, "geometry": {"type": "Polygon", "coordinates": [[[-118.2925276, 34.1204078], [-118.2927061, 34.120424], [-118.2928602, 34.1204331], [-118.2929507, 34.1204179], [-118.29298, 34.1203754], [-118.2929751, 34.120342], [-118.2929409, 34.1202904], [-118.2928663, 34.120261], [-118.2927563, 34.1202478], [-118.2924665, 34.1202144], [-118.29214, 34.1201831], [-118.2919114, 34.1201719], [-118.2917695, 34.120179], [-118.2916778, 34.1201962], [-118.2916228, 34.1202074], [-118.2915641, 34.1202043], [-118.2914577, 34.1201982], [-118.2913807, 34.1202023], [-118.2910738, 34.1202671], [-118.2908097, 34.1203339], [-118.2905566, 34.1204118], [-118.2903549, 34.1204857], [-118.2901788, 34.1205596], [-118.2900162, 34.1206386], [-118.2898963, 34.1207135], [-118.2898083, 34.1207783], [-118.2897643, 34.1208086], [-118.2897056, 34.120842], [-118.2896591, 34.1208694], [-118.2896139, 34.1208886], [-118.2895845, 34.1209099], [-118.2895711, 34.1209341], [-118.2895601, 34.1209696], [-118.2895589, 34.121008], [-118.2895625, 34.1210475], [-118.2895735, 34.121085], [-118.2895882, 34.1211143], [-118.2896139, 34.1211406], [-118.2896347, 34.1211518], [-118.2896799, 34.1211639], [-118.2897276, 34.1211639], [-118.2897716, 34.1211528], [-118.289801, 34.1211346], [-118.2898413, 34.1211012], [-118.2898646, 34.1210607], [-118.2898951, 34.1210182], [-118.2899489, 34.1209716], [-118.2900101, 34.1209139], [-118.2900444, 34.1208868], [-118.2901264, 34.1208322], [-118.2902067, 34.120791], [-118.2903384, 34.1207273], [-118.2904356, 34.1206847], [-118.2906308, 34.1206098], [-118.2908841, 34.1205327], [-118.2910626, 34.1204943], [-118.2913414, 34.1204558], [-118.2916043, 34.1204264], [-118.2917962, 34.1204123], [-118.2920555, 34.1204042], [-118.292278, 34.1203971], [-118.2925276, 34.1204078]]]}}, {"type": "Feature", "properties": {"kind": "fairway", "osm_id": 16472292, "osm_type": "relation", "name": null}, "geometry": {"type": "Polygon", "coordinates": [[[-118.2896416, 34.1196704], [-118.2892498, 34.1198654], [-118.2890493, 34.1200057], [-118.2888948, 34.1201575], [-118.2887661, 34.120286], [-118.2886814, 34.1203873], [-118.2885936, 34.1205195], [-118.2885203, 34.1206672], [-118.2884335, 34.1207452], [-118.2883687, 34.1207459], [-118.288311, 34.1207242], [-118.2882918, 34.120698], [-118.2883216, 34.1205156], [-118.2883627, 34.1202858], [-118.2884247, 34.1201481], [-118.2885364, 34.119945], [-118.2886137, 34.119868], [-118.2887428, 34.1198349], [-118.2889608, 34.1197077], [-118.2891738, 34.1196061], [-118.2893578, 34.1195569], [-118.2894617, 34.119541], [-118.2895596, 34.1195599], [-118.2896585, 34.1195923], [-118.2896906, 34.1196202], [-118.289698, 34.1196484], [-118.2896416, 34.1196704]]]}}, {"type": "Feature", "properties": {"kind": "hole_line", "hole_ref": "1", "par": 4, "distance": null, "handicap": null}, "geometry": {"type": "LineString", "coordinates": [[-118.2926317, 34.11828], [-118.2932483, 34.1193039], [-118.2936956, 34.1203187]]}}, {"type": "Feature", "properties": {"kind": "hole_line", "hole_ref": "2", "par": 4, "distance": null, "handicap": null}, "geometry": {"type": "LineString", "coordinates": [[-118.2932219, 34.1203977], [-118.2911275, 34.1203685], [-118.289695, 34.1210225]]}}, {"type": "Feature", "properties": {"kind": "hole_line", "hole_ref": "3", "par": 3, "distance": null, "handicap": null}, "geometry": {"type": "LineString", "coordinates": [[-118.2898574, 34.1213926], [-118.2890339, 34.1219431]]}}, {"type": "Feature", "properties": {"kind": "hole_line", "hole_ref": "4", "par": 4, "distance": null, "handicap": null}, "geometry": {"type": "LineString", "coordinates": [[-118.2886129, 34.121452], [-118.2897612, 34.1203361], [-118.2909107, 34.1196929], [-118.2909985, 34.119644]]}}, {"type": "Feature", "properties": {"kind": "hole_line", "hole_ref": "5", "par": 4, "distance": null, "handicap": null}, "geometry": {"type": "LineString", "coordinates": [[-118.2897276, 34.1194087], [-118.2884874, 34.1201924], [-118.2884784, 34.1209439]]}}, {"type": "Feature", "properties": {"kind": "hole_line", "hole_ref": "6", "par": 4, "distance": null, "handicap": null}, "geometry": {"type": "LineString", "coordinates": [[-118.288035, 34.1209737], [-118.2867828, 34.1190069]]}}, {"type": "Feature", "properties": {"kind": "hole_line", "hole_ref": "7", "par": 3, "distance": null, "handicap": null}, "geometry": {"type": "LineString", "coordinates": [[-118.287042, 34.1190047], [-118.2887607, 34.1191105]]}}, {"type": "Feature", "properties": {"kind": "hole_line", "hole_ref": "8", "par": 4, "distance": null, "handicap": null}, "geometry": {"type": "LineString", "coordinates": [[-118.2890832, 34.118883], [-118.2907301, 34.1186332], [-118.2917331, 34.1194745]]}}, {"type": "Feature", "properties": {"kind": "hole_line", "hole_ref": "9", "par": 3, "distance": null, "handicap": null}, "geometry": {"type": "LineString", "coordinates": [[-118.2921444, 34.1196341], [-118.2921256, 34.1182734]]}}]}