{"type": "FeatureCollection", "features": [{"type": "Feature", "properties": {"centroid_id": 2, "provisional_hole": null, "kind": "green", "area_m2": 333.4, "anchor_latlon": [34.121064, -118.290746], "source": "phase_b_v1.5_region_grow"}, "geometry": {"type": "Polygon", "coordinates": [[[-118.290518, 34.121286000000005], [-118.290518, 34.121280000000006], [-118.290542, 34.121280000000006], [-118.290542, 34.121268], [-118.290554, 34.121268], [-118.290554, 34.121262], [-118.29056, 34.121262], [-118.29056, 34.121256], [-118.290566, 34.121256], [-118.290566, 34.12125], [-118.290578, 34.12125], [-118.290578, 34.121244000000004], [-118.290584, 34.121244000000004], [-118.290584, 34.121238000000005], [-118.29059, 34.121238000000005], [-118.29059, 34.121232000000006], [-118.29059600000001, 34.121232000000006], [-118.29059600000001, 34.121226], [-118.290608, 34.121226], [-118.290608, 34.12122], [-118.290614, 34.12122], [-118.290614, 34.121190000000006], [-118.290656, 34.121190000000006], [-118.290656, 34.12118400000001], [-118.290662, 34.12118400000001], [-118.290662, 34.121172], [-118.29065, 34.121172], [-118.29065, 34.121142000000006], [-118.29068600000001, 34.121142000000006], [-118.29068600000001, 34.12113], [-118.290722, 34.12113], [-118.290722, 34.121100000000006], [-118.290758, 34.121100000000006], [-118.290758, 34.12109400000001], [-118.29077, 34.12109400000001], [-118.29077, 34.121082], [-118.29078200000001, 34.121082], [-118.29078200000001, 34.121064000000004], [-118.29077600000001, 34.121064000000004], [-118.29077600000001, 34.121058000000005], [-118.29077, 34.121058000000005], [-118.29077, 34.121052000000006], [-118.290764, 34.121052000000006], [-118.290764, 34.121022], [-118.290818, 34.121022], [-118.290818, 34.121016000000004], [-118.29083, 34.121016000000004], [-118.29083, 34.121010000000005], [-118.290848, 34.121010000000005], [-118.290848, 34.121004000000006], [-118.29089, 34.121004000000006], [-118.29089, 34.120998], [-118.290914, 34.120998], [-118.290914, 34.120992], [-118.290902, 34.120992], [-118.290902, 34.120986], [-118.29087200000001, 34.120986], [-118.29087200000001, 34.12098], [-118.290854, 34.12098], [-118.290854, 34.120962000000006], [-118.290812, 34.120962000000006], [-118.290812, 34.120968000000005], [-118.290806, 34.120968000000005], [-118.290806, 34.120974000000004], [-118.290788, 34.120974000000004], [-118.290788, 34.12098], [-118.29078200000001, 34.12098], [-118.29078200000001, 34.120998], [-118.29077, 34.120998], [-118.29077, 34.121016000000004], [-118.290716, 34.121016000000004], [-118.290716, 34.121034], [-118.29068, 34.121034], [-118.29068, 34.12104], [-118.290674, 34.12104], [-118.290674, 34.12104600000001], [-118.290662, 34.12104600000001], [-118.290662, 34.121058000000005], [-118.290656, 34.121058000000005], [-118.290656, 34.121076], [-118.290644, 34.121076], [-118.290644, 34.121082], [-118.290638, 34.121082], [-118.290638, 34.121088], [-118.290632, 34.121088], [-118.290632, 34.121100000000006], [-118.290626, 34.121100000000006], [-118.290626, 34.121106000000005], [-118.29062, 34.121106000000005], [-118.29062, 34.121118], [-118.29059, 34.121118], [-118.29059, 34.121124], [-118.290578, 34.121124], [-118.290578, 34.12113], [-118.290572, 34.12113], [-118.290572, 34.121136], [-118.290566, 34.121136], [-118.290566, 34.121142000000006], [-118.29056, 34.121142000000006], [-118.29056, 34.121148000000005], [-118.290554, 34.121148000000005], [-118.290554, 34.121172], [-118.290548, 34.121172], [-118.290548, 34.12118400000001], [-118.290536, 34.12118400000001], [-118.290536, 34.121190000000006], [-118.29053, 34.121190000000006], [-118.29053, 34.121196000000005], [-118.290512, 34.121196000000005], [-118.290512, 34.121202000000004], [-118.29050000000001, 34.121202000000004], [-118.29050000000001, 34.121226], [-118.290482, 34.121226], [-118.290482, 34.121232000000006], [-118.290476, 34.121232000000006], [-118.290476, 34.121244000000004], [-118.29047, 34.121244000000004], [-118.29047, 34.12125], [-118.290464, 34.12125], [-118.290464, 34.121268], [-118.290458, 34.121268], [-118.290458, 34.121280000000006], [-118.29047, 34.121280000000006], [-118.29047, 34.12127400000001], [-118.29050000000001, 34.12127400000001], [-118.29050000000001, 34.121286000000005], [-118.290518, 34.121286000000005]]]}}, {"type": "Feature", "properties": {"centroid_id": 3, "provisional_hole": null, "kind": "green", "area_m2": 741.3, "anchor_latlon": [34.121004, -118.288904], "source": "phase_b_v1.5_region_grow"}, "geometry": {"type": "Polygon", "coordinates": [[[-118.28888, 34.121100000000006], [-118.28888, 34.121076], [-118.288904, 34.121076], [-118.288904, 34.12107], [-118.28891, 34.12107], [-118.28891, 34.121058000000005], [-118.288916, 34.121058000000005], [-118.288916, 34.12104], [-118.288922, 34.12104], [-118.288922, 34.120992], [-118.28897, 34.120992], [-118.28897, 34.120998], [-118.288976, 34.120998], [-118.288976, 34.120992], [-118.289, 34.120992], [-118.289, 34.120986], [-118.289012, 34.120986], [-118.289012, 34.12098], [-118.28904800000001, 34.12098], [-118.28904800000001, 34.120968000000005], [-118.28906, 34.120968000000005], [-118.28906, 34.12095], [-118.28905400000001, 34.12095], [-118.28905400000001, 34.120938], [-118.289042, 34.120938], [-118.289042, 34.120926000000004], [-118.289006, 34.120926000000004], [-118.289006, 34.120908], [-118.288994, 34.120908], [-118.288994, 34.120902], [-118.288946, 34.120902], [-118.288946, 34.120896], [-118.28894, 34.120896], [-118.28894, 34.12089], [-118.288934, 34.12089], [-118.288934, 34.120884000000004], [-118.288928, 34.120884000000004], [-118.288928, 34.12086600000001], [-118.288922, 34.12086600000001], [-118.288922, 34.120836000000004], [-118.28894, 34.120836000000004], [-118.28894, 34.120830000000005], [-118.288952, 34.120830000000005], [-118.288952, 34.120818], [-118.28897, 34.120818], [-118.28897, 34.120806], [-118.289006, 34.120806], [-118.289006, 34.1208], [-118.28903, 34.1208], [-118.28903, 34.120794000000004], [-118.289036, 34.120794000000004], [-118.289036, 34.120782000000005], [-118.28906, 34.120782000000005], [-118.28906, 34.12077], [-118.28905400000001, 34.12077], [-118.28905400000001, 34.120758], [-118.289042, 34.120758], [-118.289042, 34.120752], [-118.28903, 34.120752], [-118.28903, 34.120746000000004], [-118.289018, 34.120746000000004], [-118.289018, 34.120716], [-118.28903, 34.120716], [-118.28903, 34.12071], [-118.28904800000001, 34.12071], [-118.28904800000001, 34.120704], [-118.28905400000001, 34.120704], [-118.28905400000001, 34.120698000000004], [-118.28906, 34.120698000000004], [-118.28906, 34.120686000000006], [-118.28905400000001, 34.120686000000006], [-118.28905400000001, 34.12068], [-118.28904800000001, 34.12068], [-118.28904800000001, 34.120674], [-118.289042, 34.120674], [-118.289042, 34.120668], [-118.289036, 34.120668], [-118.289036, 34.120662], [-118.289024, 34.120662], [-118.289024, 34.120656000000004], [-118.289018, 34.120656000000004], [-118.289018, 34.120650000000005], [-118.288988, 34.120650000000005], [-118.288988, 34.120644000000006], [-118.288982, 34.120644000000006], [-118.288982, 34.120632], [-118.28894, 34.120632], [-118.28894, 34.120626], [-118.288922, 34.120626], [-118.288922, 34.120614], [-118.288916, 34.120614], [-118.288916, 34.120608000000004], [-118.288904, 34.120608000000004], [-118.288904, 34.120602000000005], [-118.28885, 34.120602000000005], [-118.28885, 34.120596000000006], [-118.288796, 34.120596000000006], [-118.288796, 34.120608000000004], [-118.288814, 34.120608000000004], [-118.288814, 34.120614], [-118.28882, 34.120614], [-118.28882, 34.12062], [-118.288832, 34.12062], [-118.288832, 34.120626], [-118.288874, 34.120626], [-118.288874, 34.120704], [-118.288862, 34.120704], [-118.288862, 34.120722], [-118.288856, 34.120722], [-118.288856, 34.12072800000001], [-118.288862, 34.12072800000001], [-118.288862, 34.120758], [-118.288856, 34.120758], [-118.288856, 34.120776000000006], [-118.288838, 34.120776000000006], [-118.288838, 34.120794000000004], [-118.288808, 34.120794000000004], [-118.288808, 34.1208], [-118.28879, 34.1208], [-118.28879, 34.120848], [-118.288796, 34.120848], [-118.288796, 34.120854], [-118.288808, 34.120854], [-118.288808, 34.12086], [-118.288814, 34.12086], [-118.288814, 34.120884000000004], [-118.288826, 34.120884000000004], [-118.288826, 34.120896], [-118.288844, 34.120896], [-118.288844, 34.120932], [-118.288838, 34.120932], [-118.288838, 34.120944], [-118.288844, 34.120944], [-118.288844, 34.120962000000006], [-118.28885, 34.120962000000006], [-118.28885, 34.120992], [-118.288844, 34.120992], [-118.288844, 34.120998], [-118.288814, 34.120998], [-118.288814, 34.120992], [-118.288808, 34.120992], [-118.288808, 34.120986], [-118.288802, 34.120986], [-118.288802, 34.120998], [-118.288808, 34.120998], [-118.288808, 34.121022], [-118.288814, 34.121022], [-118.288814, 34.121064000000004], [-118.28882, 34.121064000000004], [-118.28882, 34.12107], [-118.288832, 34.12107], [-118.288832, 34.121076], [-118.288838, 34.121076], [-118.288838, 34.121082], [-118.28885, 34.121082], [-118.28885, 34.121088], [-118.288856, 34.121088], [-118.288856, 34.12109400000001], [-118.28886800000001, 34.12109400000001], [-118.28886800000001, 34.121100000000006], [-118.28888, 34.121100000000006]]]}}, {"type": "Feature", "properties": {"centroid_id": 6, "provisional_hole": null, "kind": "green", "area_m2": 801.4, "anchor_latlon": [34.118622, -118.290596], "source": "phase_b_v1.5_region_grow"}, "geometry": {"type": "Polygon", "coordinates": [[[-118.291256, 34.118958000000006], [-118.291256, 34.118946], [-118.29125, 34.118946], [-118.29125, 34.11894], [-118.291244, 34.11894], [-118.291244, 34.118904], [-118.29125, 34.118904], [-118.29125, 34.118892], [-118.291244, 34.118892], [-118.291244, 34.118880000000004], [-118.291238, 34.118880000000004], [-118.291238, 34.118874000000005], [-118.29123200000001, 34.118874000000005], [-118.29123200000001, 34.118868000000006], [-118.291226, 34.118868000000006], [-118.291226, 34.118862], [-118.29122, 34.118862], [-118.29122, 34.118856], [-118.291214, 34.118856], [-118.291214, 34.11885], [-118.291208, 34.11885], [-118.291208, 34.118838000000004], [-118.291202, 34.118838000000004], [-118.291202, 34.118832000000005], [-118.291196, 34.118832000000005], [-118.291196, 34.118826000000006], [-118.29119, 34.118826000000006], [-118.29119, 34.11882000000001], [-118.291178, 34.11882000000001], [-118.291178, 34.118814], [-118.291172, 34.118814], [-118.291172, 34.118808], [-118.291166, 34.118808], [-118.291166, 34.118802], [-118.29116, 34.118802], [-118.29116, 34.118796], [-118.291154, 34.118796], [-118.291154, 34.118790000000004], [-118.291148, 34.118790000000004], [-118.291148, 34.118784000000005], [-118.29114200000001, 34.118784000000005], [-118.29114200000001, 34.118778000000006], [-118.291136, 34.118778000000006], [-118.291136, 34.118772], [-118.29113, 34.118772], [-118.29113, 34.118766], [-118.291124, 34.118766], [-118.291124, 34.11876], [-118.291118, 34.11876], [-118.291118, 34.118754], [-118.291112, 34.118754], [-118.291112, 34.118748000000004], [-118.291106, 34.118748000000004], [-118.291106, 34.118736000000006], [-118.2911, 34.118736000000006], [-118.2911, 34.118724], [-118.291094, 34.118724], [-118.291094, 34.118706], [-118.291088, 34.118706], [-118.291088, 34.118700000000004], [-118.291082, 34.118700000000004], [-118.291082, 34.118694000000005], [-118.291076, 34.118694000000005], [-118.291076, 34.11868200000001], [-118.29107, 34.11868200000001], [-118.29107, 34.11867], [-118.291064, 34.11867], [-118.291064, 34.118658], [-118.291058, 34.118658], [-118.291058, 34.118640000000006], [-118.29105200000001, 34.118640000000006], [-118.29105200000001, 34.118646000000005], [-118.291034, 34.118646000000005], [-118.291034, 34.118676], [-118.290974, 34.118676], [-118.290974, 34.118652000000004], [-118.29095600000001, 34.118652000000004], [-118.29095600000001, 34.118622], [-118.29095, 34.118622], [-118.29095, 34.118616], [-118.290944, 34.118616], [-118.290944, 34.118610000000004], [-118.290938, 34.118610000000004], [-118.290938, 34.118604000000005], [-118.290932, 34.118604000000005], [-118.290932, 34.118598000000006], [-118.290926, 34.118598000000006], [-118.290926, 34.11859200000001], [-118.29092, 34.11859200000001], [-118.29092, 34.118574], [-118.290914, 34.118574], [-118.290914, 34.118568], [-118.290902, 34.118568], [-118.290902, 34.118574], [-118.290896, 34.118574], [-118.290896, 34.11858], [-118.29086, 34.11858], [-118.29086, 34.118574], [-118.290854, 34.118574], [-118.290854, 34.11858], [-118.290842, 34.11858], [-118.290842, 34.118586], [-118.29083, 34.118586], [-118.29083, 34.11859200000001], [-118.290824, 34.11859200000001], [-118.290824, 34.118598000000006], [-118.290818, 34.118598000000006], [-118.290818, 34.118604000000005], [-118.290812, 34.118604000000005], [-118.290812, 34.118610000000004], [-118.29078200000001, 34.118610000000004], [-118.29078200000001, 34.118604000000005], [-118.290764, 34.118604000000005], [-118.290764, 34.118598000000006], [-118.290758, 34.118598000000006], [-118.290758, 34.11858], [-118.290752, 34.11858], [-118.290752, 34.118574], [-118.290746, 34.118574], [-118.290746, 34.118568], [-118.290734, 34.118568], [-118.290734, 34.118562000000004], [-118.290722, 34.118562000000004], [-118.290722, 34.118568], [-118.290704, 34.118568], [-118.290704, 34.118574], [-118.290674, 34.118574], [-118.290674, 34.118568], [-118.290668, 34.118568], [-118.290668, 34.118562000000004], [-118.290662, 34.118562000000004], [-118.290662, 34.118568], [-118.290656, 34.118568], [-118.290656, 34.118574], [-118.290626, 34.118574], [-118.290626, 34.118568], [-118.290608, 34.118568], [-118.290608, 34.118562000000004], [-118.290584, 34.118562000000004], [-118.290584, 34.118544], [-118.290566, 34.118544], [-118.290566, 34.118526], [-118.29056, 34.118526], [-118.29056, 34.118520000000004], [-118.290554, 34.118520000000004], [-118.290554, 34.118526], [-118.290512, 34.118526], [-118.290512, 34.118520000000004], [-118.29050000000001, 34.118520000000004], [-118.29050000000001, 34.118514000000005], [-118.290482, 34.118514000000005], [-118.290482, 34.118508000000006], [-118.29047, 34.118508000000006], [-118.29047, 34.11850200000001], [-118.290452, 34.11850200000001], [-118.290452, 34.118496], [-118.290428, 34.118496], [-118.290428, 34.11850200000001], [-118.290422, 34.11850200000001], [-118.290422, 34.118508000000006], [-118.29041600000001, 34.118508000000006], [-118.29041600000001, 34.118520000000004], [-118.29041000000001, 34.118520000000004], [-118.29041000000001, 34.118544], [-118.29041600000001, 34.118544], [-118.29041600000001, 34.118550000000006], [-118.290422, 34.118550000000006], [-118.290422, 34.118556000000005], [-118.290428, 34.118556000000005], [-118.290428, 34.118604000000005], [-118.290458, 34.118604000000005], [-118.290458, 34.118610000000004], [-118.290494, 34.118610000000004], [-118.290494, 34.118604000000005], [-118.29050600000001, 34.118604000000005], [-118.29050600000001, 34.118598000000006], [-118.290548, 34.118598000000006], [-118.290548, 34.118604000000005], [-118.290554, 34.118604000000005], [-118.290554, 34.118610000000004], [-118.29056, 34.118610000000004], [-118.29056, 34.118616], [-118.290578, 34.118616], [-118.290578, 34.118622], [-118.290602, 34.118622], [-118.290602, 34.118628], [-118.29065, 34.118628], [-118.29065, 34.118622], [-118.290656, 34.118622], [-118.290656, 34.118616], [-118.290662, 34.118616], [-118.290662, 34.118610000000004], [-118.290674, 34.118610000000004], [-118.290674, 34.118604000000005], [-118.290704, 34.118604000000005], [-118.290704, 34.118610000000004], [-118.290728, 34.118610000000004], [-118.290728, 34.118616], [-118.29074, 34.118616], [-118.29074, 34.118622], [-118.290752, 34.118622], [-118.290752, 34.118628], [-118.290764, 34.118628], [-118.290764, 34.118634], [-118.29077600000001, 34.118634], [-118.29077600000001, 34.118640000000006], [-118.290788, 34.118640000000006], [-118.290788, 34.118646000000005], [-118.2908, 34.118646000000005], [-118.2908, 34.118652000000004], [-118.290812, 34.118652000000004], [-118.290812, 34.118658], [-118.290818, 34.118658], [-118.290818, 34.118664], [-118.29083, 34.118664], [-118.29083, 34.11867], [-118.290836, 34.11867], [-118.290836, 34.118676], [-118.290848, 34.118676], [-118.290848, 34.11868200000001], [-118.29086600000001, 34.11868200000001], [-118.29086600000001, 34.118712], [-118.290854, 34.118712], [-118.290854, 34.118718], [-118.290848, 34.118718], [-118.290848, 34.118724], [-118.290854, 34.118724], [-118.290854, 34.118730000000006], [-118.29086, 34.118730000000006], [-118.29086, 34.118736000000006], [-118.29087200000001, 34.118736000000006], [-118.29087200000001, 34.118742000000005], [-118.290878, 34.118742000000005], [-118.290878, 34.118748000000004], [-118.290884, 34.118748000000004], [-118.290884, 34.118754], [-118.290896, 34.118754], [-118.290896, 34.11876], [-118.29092, 34.11876], [-118.29092, 34.118766], [-118.290932, 34.118766], [-118.290932, 34.118772], [-118.290944, 34.118772], [-118.290944, 34.118778000000006], [-118.29095, 34.118778000000006], [-118.29095, 34.118784000000005], [-118.29096200000001, 34.118784000000005], [-118.29096200000001, 34.118790000000004], [-118.290974, 34.118790000000004], [-118.290974, 34.118796], [-118.29098, 34.118796], [-118.29098, 34.118802], [-118.290986, 34.118802], [-118.290986, 34.118808], [-118.290992, 34.118808], [-118.290992, 34.118814], [-118.291004, 34.118814], [-118.291004, 34.11882000000001], [-118.291034, 34.11882000000001], [-118.291034, 34.118808], [-118.291064, 34.118808], [-118.291064, 34.118814], [-118.29107, 34.118814], [-118.29107, 34.118826000000006], [-118.291076, 34.118826000000006], [-118.291076, 34.118832000000005], [-118.291082, 34.118832000000005], [-118.291082, 34.118838000000004], [-118.291094, 34.118838000000004], [-118.291094, 34.118844], [-118.2911, 34.118844], [-118.2911, 34.11885], [-118.291112, 34.11885], [-118.291112, 34.118856], [-118.291118, 34.118856], [-118.291118, 34.118862], [-118.291124, 34.118862], [-118.291124, 34.118868000000006], [-118.291148, 34.118868000000006], [-118.291148, 34.118874000000005], [-118.29116, 34.118874000000005], [-118.29116, 34.118880000000004], [-118.291166, 34.118880000000004], [-118.291166, 34.118886], [-118.291184, 34.118886], [-118.291184, 34.118904], [-118.291196, 34.118904], [-118.291196, 34.11891000000001], [-118.291208, 34.11891000000001], [-118.291208, 34.118916000000006], [-118.291214, 34.118916000000006], [-118.291214, 34.118934], [-118.29122, 34.118934], [-118.29122, 34.11894], [-118.291238, 34.11894], [-118.291238, 34.118946], [-118.291244, 34.118946], [-118.291244, 34.118952], [-118.29125, 34.118952], [-118.29125, 34.118958000000006], [-118.291256, 34.118958000000006]]]}}]}