{"type": "FeatureCollection", "features": [{"type": "Feature", "properties": {"centroid_id": 1, "provisional_hole": null, "kind": "green", "kind_source": "green", "area_m2": 556.7, "dist_to_seed_m": 74.6, "contains_seed": false, "source": "phase_b_v1.5_picked_from_v1"}, "geometry": {"type": "Polygon", "coordinates": [[[-118.28891, 34.121064000000004], [-118.28891, 34.121010000000005], [-118.288916, 34.121010000000005], [-118.288916, 34.120992], [-118.288946, 34.120992], [-118.288946, 34.120986], [-118.289012, 34.120986], [-118.289012, 34.12098], [-118.289024, 34.12098], [-118.289024, 34.120974000000004], [-118.28904800000001, 34.120974000000004], [-118.28904800000001, 34.120938], [-118.289042, 34.120938], [-118.289042, 34.120932], [-118.289012, 34.120932], [-118.289012, 34.120926000000004], [-118.289006, 34.120926000000004], [-118.289006, 34.120914000000006], [-118.289, 34.120914000000006], [-118.289, 34.120908], [-118.288994, 34.120908], [-118.288994, 34.120902], [-118.288946, 34.120902], [-118.288946, 34.120896], [-118.28894, 34.120896], [-118.28894, 34.12089], [-118.288934, 34.12089], [-118.288934, 34.120884000000004], [-118.288928, 34.120884000000004], [-118.288928, 34.120836000000004], [-118.28894, 34.120836000000004], [-118.28894, 34.120830000000005], [-118.288946, 34.120830000000005], [-118.288946, 34.120818], [-118.288964, 34.120818], [-118.288964, 34.120806], [-118.289, 34.120806], [-118.289, 34.120794000000004], [-118.28903, 34.120794000000004], [-118.28903, 34.120788000000005], [-118.289036, 34.120788000000005], [-118.289036, 34.120782000000005], [-118.289042, 34.120782000000005], [-118.289042, 34.120752], [-118.28903, 34.120752], [-118.28903, 34.12071], [-118.28904800000001, 34.12071], [-118.28904800000001, 34.120674], [-118.289042, 34.120674], [-118.289042, 34.120668], [-118.289036, 34.120668], [-118.289036, 34.120662], [-118.289024, 34.120662], [-118.289024, 34.120656000000004], [-118.289006, 34.120656000000004], [-118.289006, 34.120650000000005], [-118.288988, 34.120650000000005], [-118.288988, 34.120644000000006], [-118.288982, 34.120644000000006], [-118.288982, 34.120632], [-118.28894, 34.120632], [-118.28894, 34.120626], [-118.28891, 34.120626], [-118.28891, 34.120644000000006], [-118.288886, 34.120644000000006], [-118.288886, 34.120746000000004], [-118.288874, 34.120746000000004], [-118.288874, 34.120794000000004], [-118.288844, 34.120794000000004], [-118.288844, 34.120842], [-118.288838, 34.120842], [-118.288838, 34.120878000000005], [-118.288844, 34.120878000000005], [-118.288844, 34.120884000000004], [-118.28885, 34.120884000000004], [-118.28885, 34.120986], [-118.288838, 34.120986], [-118.288838, 34.121022], [-118.288844, 34.121022], [-118.288844, 34.121028], [-118.28885, 34.121028], [-118.28885, 34.121034], [-118.288874, 34.121034], [-118.288874, 34.121064000000004], [-118.28891, 34.121064000000004]]]}}, {"type": "Feature", "properties": {"centroid_id": 2, "provisional_hole": null, "kind": "green", "kind_source": "fairway", "area_m2": 1034.8, "dist_to_seed_m": 149.4, "contains_seed": false, "source": "phase_b_v1.5_picked_from_v1"}, "geometry": {"type": "Polygon", "coordinates": [[[-118.289198, 34.120008000000006], [-118.289198, 34.12000200000001], [-118.289216, 34.12000200000001], [-118.289216, 34.119996], [-118.289222, 34.119996], [-118.289222, 34.11999], [-118.28922800000001, 34.11999], [-118.28922800000001, 34.119984], [-118.28924, 34.119984], [-118.28924, 34.119978], [-118.289294, 34.119978], [-118.289294, 34.119948], [-118.289342, 34.119948], [-118.289342, 34.119942], [-118.289396, 34.119942], [-118.289396, 34.119936], [-118.289408, 34.119936], [-118.289408, 34.119930000000004], [-118.28941400000001, 34.119930000000004], [-118.28941400000001, 34.119924000000005], [-118.28942, 34.119924000000005], [-118.28942, 34.11986400000001], [-118.289468, 34.11986400000001], [-118.289468, 34.119870000000006], [-118.289474, 34.119870000000006], [-118.289474, 34.119876000000005], [-118.289486, 34.119876000000005], [-118.289486, 34.119882000000004], [-118.289522, 34.119882000000004], [-118.289522, 34.119846], [-118.289516, 34.119846], [-118.289516, 34.119816], [-118.289522, 34.119816], [-118.289522, 34.119798], [-118.289552, 34.119798], [-118.289552, 34.11977400000001], [-118.289576, 34.11977400000001], [-118.289576, 34.119768], [-118.289612, 34.119768], [-118.289612, 34.119690000000006], [-118.289606, 34.119690000000006], [-118.289606, 34.11968400000001], [-118.289576, 34.11968400000001], [-118.289576, 34.119678], [-118.289546, 34.119678], [-118.289546, 34.119702000000004], [-118.289528, 34.119702000000004], [-118.289528, 34.119714], [-118.289522, 34.119714], [-118.289522, 34.119726], [-118.28950400000001, 34.119726], [-118.28950400000001, 34.119780000000006], [-118.28948, 34.119780000000006], [-118.28948, 34.119786000000005], [-118.289444, 34.119786000000005], [-118.289444, 34.119816], [-118.289408, 34.119816], [-118.289408, 34.119798], [-118.289372, 34.119798], [-118.289372, 34.119804], [-118.289366, 34.119804], [-118.289366, 34.11981], [-118.289336, 34.11981], [-118.289336, 34.119768], [-118.289318, 34.119768], [-118.289318, 34.11972], [-118.289288, 34.11972], [-118.289288, 34.119768], [-118.289282, 34.119768], [-118.289282, 34.11977400000001], [-118.289276, 34.11977400000001], [-118.289276, 34.119780000000006], [-118.289258, 34.119780000000006], [-118.289258, 34.119798], [-118.28924, 34.119798], [-118.28924, 34.11981], [-118.28923400000001, 34.11981], [-118.28923400000001, 34.119852], [-118.289198, 34.119852], [-118.289198, 34.119828000000005], [-118.289192, 34.119828000000005], [-118.289192, 34.119822000000006], [-118.289186, 34.119822000000006], [-118.289186, 34.11981], [-118.28918, 34.11981], [-118.28918, 34.119804], [-118.289174, 34.119804], [-118.289174, 34.119792000000004], [-118.28913800000001, 34.119792000000004], [-118.28913800000001, 34.119786000000005], [-118.289132, 34.119786000000005], [-118.289132, 34.119780000000006], [-118.289126, 34.119780000000006], [-118.289126, 34.119756], [-118.289096, 34.119756], [-118.289096, 34.119762], [-118.28903, 34.119762], [-118.28903, 34.119738000000005], [-118.289, 34.119738000000005], [-118.289, 34.119744000000004], [-118.288976, 34.119744000000004], [-118.288976, 34.119780000000006], [-118.288982, 34.119780000000006], [-118.288982, 34.119798], [-118.288988, 34.119798], [-118.288988, 34.119828000000005], [-118.288952, 34.119828000000005], [-118.288952, 34.119846], [-118.28891, 34.119846], [-118.28891, 34.11986400000001], [-118.288862, 34.11986400000001], [-118.288862, 34.119894], [-118.288874, 34.119894], [-118.288874, 34.1199], [-118.288904, 34.1199], [-118.288904, 34.119888], [-118.288946, 34.119888], [-118.288946, 34.119918000000006], [-118.288982, 34.119918000000006], [-118.288982, 34.119924000000005], [-118.288994, 34.119924000000005], [-118.288994, 34.119930000000004], [-118.28903, 34.119930000000004], [-118.28903, 34.119936], [-118.289036, 34.119936], [-118.289036, 34.119948], [-118.28904800000001, 34.119948], [-118.28904800000001, 34.119954], [-118.28909, 34.119954], [-118.28909, 34.119948], [-118.289102, 34.119948], [-118.289102, 34.119942], [-118.28914400000001, 34.119942], [-118.28914400000001, 34.11999], [-118.28915, 34.11999], [-118.28915, 34.119996], [-118.289156, 34.119996], [-118.289156, 34.12000200000001], [-118.289162, 34.12000200000001], [-118.289162, 34.120008000000006], [-118.289198, 34.120008000000006]]]}}, {"type": "Feature", "properties": {"centroid_id": 3, "provisional_hole": null, "kind": "green", "kind_source": "green", "area_m2": 316.5, "dist_to_seed_m": 6.6, "contains_seed": false, "source": "phase_b_v1.5_picked_from_v1"}, "geometry": {"type": "Polygon", "coordinates": [[[-118.288376, 34.121016000000004], [-118.288376, 34.120974000000004], [-118.28841200000001, 34.120974000000004], [-118.28841200000001, 34.120944], [-118.288466, 34.120944], [-118.288466, 34.120914000000006], [-118.288454, 34.120914000000006], [-118.288454, 34.120908], [-118.288406, 34.120908], [-118.288406, 34.120902], [-118.2884, 34.120902], [-118.2884, 34.12086], [-118.28841800000001, 34.12086], [-118.28841800000001, 34.120854], [-118.28843, 34.120854], [-118.28843, 34.120818], [-118.28841800000001, 34.120818], [-118.28841800000001, 34.120812], [-118.28841200000001, 34.120812], [-118.28841200000001, 34.120806], [-118.288388, 34.120806], [-118.288388, 34.1208], [-118.288382, 34.1208], [-118.288382, 34.120794000000004], [-118.288316, 34.120794000000004], [-118.288316, 34.120734000000006], [-118.288346, 34.120734000000006], [-118.288346, 34.120698000000004], [-118.28834, 34.120698000000004], [-118.28834, 34.120692000000005], [-118.288334, 34.120692000000005], [-118.288334, 34.12068], [-118.288328, 34.12068], [-118.288328, 34.120668], [-118.28831, 34.120668], [-118.28831, 34.120626], [-118.28828, 34.120626], [-118.28828, 34.120656000000004], [-118.288292, 34.120656000000004], [-118.288292, 34.120704], [-118.288286, 34.120704], [-118.288286, 34.12071], [-118.28828, 34.12071], [-118.28828, 34.12077], [-118.288286, 34.12077], [-118.288286, 34.120920000000005], [-118.288292, 34.120920000000005], [-118.288292, 34.120932], [-118.28831, 34.120932], [-118.28831, 34.12095], [-118.288334, 34.12095], [-118.288334, 34.121004000000006], [-118.28834, 34.121004000000006], [-118.28834, 34.121010000000005], [-118.288346, 34.121010000000005], [-118.288346, 34.121016000000004], [-118.288376, 34.121016000000004]]]}}, {"type": "Feature", "properties": {"centroid_id": 4, "provisional_hole": null, "kind": "green", "kind_source": "green", "area_m2": 380.4, "dist_to_seed_m": 0, "contains_seed": true, "source": "phase_b_v1.5_picked_from_v1"}, "geometry": {"type": "Polygon", "coordinates": [[[-118.293662, 34.120542], [-118.293662, 34.120536], [-118.293674, 34.120536], [-118.293674, 34.120524], [-118.293698, 34.120524], [-118.293698, 34.120452], [-118.293722, 34.120452], [-118.293722, 34.120386], [-118.293734, 34.120386], [-118.293734, 34.120380000000004], [-118.293752, 34.120380000000004], [-118.293752, 34.12035], [-118.293734, 34.12035], [-118.293734, 34.120302], [-118.29374, 34.120302], [-118.29374, 34.120272], [-118.293704, 34.120272], [-118.293704, 34.12026], [-118.293662, 34.12026], [-118.293662, 34.120266], [-118.293578, 34.120266], [-118.293578, 34.120272], [-118.293566, 34.120272], [-118.293566, 34.120302], [-118.293536, 34.120302], [-118.293536, 34.12035], [-118.293542, 34.12035], [-118.293542, 34.120356], [-118.293548, 34.120356], [-118.293548, 34.120362], [-118.293578, 34.120362], [-118.293578, 34.120422000000005], [-118.293584, 34.120422000000005], [-118.293584, 34.120428000000004], [-118.29359, 34.120428000000004], [-118.29359, 34.120434], [-118.293608, 34.120434], [-118.293608, 34.120446], [-118.29362, 34.120446], [-118.29362, 34.120518000000004], [-118.293632, 34.120518000000004], [-118.293632, 34.120542], [-118.293662, 34.120542]]]}}, {"type": "Feature", "properties": {"centroid_id": 5, "provisional_hole": null, "kind": "green", "kind_source": "green", "area_m2": 260.4, "dist_to_seed_m": 129.1, "contains_seed": false, "source": "phase_b_v1.5_picked_from_v1"}, "geometry": {"type": "Polygon", "coordinates": [[[-118.29041000000001, 34.119336000000004], [-118.29041000000001, 34.119330000000005], [-118.290422, 34.119330000000005], [-118.290422, 34.1193], [-118.290398, 34.1193], [-118.290398, 34.119294000000004], [-118.290392, 34.119294000000004], [-118.290392, 34.119246000000004], [-118.290434, 34.119246000000004], [-118.290434, 34.119258], [-118.290464, 34.119258], [-118.290464, 34.119252], [-118.290494, 34.119252], [-118.290494, 34.119240000000005], [-118.29050000000001, 34.119240000000005], [-118.29050000000001, 34.119234000000006], [-118.290542, 34.119234000000006], [-118.290542, 34.119240000000005], [-118.290584, 34.119240000000005], [-118.290584, 34.119234000000006], [-118.29059, 34.119234000000006], [-118.29059, 34.11922800000001], [-118.290602, 34.11922800000001], [-118.290602, 34.119222], [-118.290608, 34.119222], [-118.290608, 34.119186000000006], [-118.290602, 34.119186000000006], [-118.290602, 34.11918], [-118.29059600000001, 34.11918], [-118.29059600000001, 34.119174], [-118.29059, 34.119174], [-118.29059, 34.119168], [-118.290584, 34.119168], [-118.290584, 34.119162], [-118.290578, 34.119162], [-118.290578, 34.119156000000004], [-118.290566, 34.119156000000004], [-118.290566, 34.119150000000005], [-118.29056, 34.119150000000005], [-118.29056, 34.119144000000006], [-118.29053, 34.119144000000006], [-118.29053, 34.119150000000005], [-118.290518, 34.119150000000005], [-118.290518, 34.119156000000004], [-118.290488, 34.119156000000004], [-118.290488, 34.119162], [-118.290452, 34.119162], [-118.290452, 34.119174], [-118.29041000000001, 34.119174], [-118.29041000000001, 34.119234000000006], [-118.290368, 34.119234000000006], [-118.290368, 34.119186000000006], [-118.290362, 34.119186000000006], [-118.290362, 34.11918], [-118.290356, 34.11918], [-118.290356, 34.119174], [-118.29032000000001, 34.119174], [-118.29032000000001, 34.119216], [-118.290314, 34.119216], [-118.290314, 34.119246000000004], [-118.29032000000001, 34.119246000000004], [-118.29032000000001, 34.119258], [-118.29032600000001, 34.119258], [-118.29032600000001, 34.119264], [-118.290332, 34.119264], [-118.290332, 34.119276000000006], [-118.290338, 34.119276000000006], [-118.290338, 34.119294000000004], [-118.290344, 34.119294000000004], [-118.290344, 34.119306], [-118.29035, 34.119306], [-118.29035, 34.119312], [-118.290356, 34.119312], [-118.290356, 34.119318], [-118.290362, 34.119318], [-118.290362, 34.119324000000006], [-118.290374, 34.119324000000006], [-118.290374, 34.119330000000005], [-118.29038, 34.119330000000005], [-118.29038, 34.119336000000004], [-118.29041000000001, 34.119336000000004]]]}}, {"type": "Feature", "properties": {"centroid_id": 9, "provisional_hole": null, "kind": "green", "kind_source": "green", "area_m2": 179.9, "dist_to_seed_m": 14.6, "contains_seed": false, "source": "phase_b_v1.5_picked_from_v1"}, "geometry": {"type": "Polygon", "coordinates": [[[-118.29284, 34.118538], [-118.29284, 34.118508000000006], [-118.292834, 34.118508000000006], [-118.292834, 34.11850200000001], [-118.292828, 34.11850200000001], [-118.292828, 34.118496], [-118.292804, 34.118496], [-118.292804, 34.11849], [-118.292798, 34.11849], [-118.292798, 34.118484], [-118.29277400000001, 34.118484], [-118.29277400000001, 34.118466000000005], [-118.29275, 34.118466000000005], [-118.29275, 34.118394], [-118.292708, 34.118394], [-118.292708, 34.118382000000004], [-118.292672, 34.118382000000004], [-118.292672, 34.118370000000006], [-118.292636, 34.118370000000006], [-118.292636, 34.118376000000005], [-118.292624, 34.118376000000005], [-118.292624, 34.118406], [-118.292636, 34.118406], [-118.292636, 34.118460000000006], [-118.29268400000001, 34.118460000000006], [-118.29268400000001, 34.118484], [-118.29269000000001, 34.118484], [-118.29269000000001, 34.118514000000005], [-118.292702, 34.118514000000005], [-118.292702, 34.118520000000004], [-118.292726, 34.118520000000004], [-118.292726, 34.118526], [-118.292744, 34.118526], [-118.292744, 34.118532], [-118.292768, 34.118532], [-118.292768, 34.118538], [-118.29284, 34.118538]]]}}]}